{
  "type": "FeatureCollection",
  "features": [
    {
      "type": "Feature",
      "properties": {
        "norad_id": 38250,
        "name": "BEIDOU-2 M3 (C11)",
        "group": "beidou",
        "lat": -40.921124795104134,
        "lon": -84.81164137835457,
        "alt_km": 21476.27431949914,
        "timestamp": "2025-12-13T20:38:51.269696+00:00",
        "meta_object_name": "BEIDOU-2 M3 (C11)",
        "meta_object_id": "2012-018A",
        "meta_epoch": "2025-12-12T20:44:25.859616",
        "meta_mean_motion": 1.86229754,
        "meta_eccentricity": 0.00243187,
        "meta_inclination": 55.9198,
        "meta_ra_of_asc_node": 311.1526,
        "meta_arg_of_pericenter": 274.2431,
        "meta_mean_anomaly": 85.469,
        "meta_ephemeris_type": 0,
        "meta_classification_type": "U",
        "meta_norad_cat_id": 38250,
        "meta_element_set_no": 999,
        "meta_rev_at_epoch": 9247,
        "meta_bstar": 0,
        "meta_mean_motion_dot": -9.2e-07,
        "meta_mean_motion_ddot": 0,
        "tle_line1": "1 38250U 12018A   25346.86418819 -.00000092  00000+0  00000+0 0  9995",
        "tle_line2": "2 38250  55.9198 311.1526 0024318 274.2431  85.4690  1.86229754 92475"
      },
      "geometry": {
        "type": "Point",
        "coordinates": [
          -84.81164137835457,
          -40.921124795104134
        ]
      }
    },
    {
      "type": "Feature",
      "properties": {
        "norad_id": 38251,
        "name": "BEIDOU-2 M4 (C12)",
        "group": "beidou",
        "lat": -5.459675326884015,
        "lon": -53.39105394527811,
        "alt_km": 21518.80358972915,
        "timestamp": "2025-12-13T20:38:51.269707+00:00",
        "meta_object_name": "BEIDOU-2 M4 (C12)",
        "meta_object_id": "2012-018B",
        "meta_epoch": "2025-12-12T06:13:22.160064",
        "meta_mean_motion": 1.86229301,
        "meta_eccentricity": 0.0015548,
        "meta_inclination": 55.8219,
        "meta_ra_of_asc_node": 310.4024,
        "meta_arg_of_pericenter": 277.1255,
        "meta_mean_anomaly": 82.6882,
        "meta_ephemeris_type": 0,
        "meta_classification_type": "U",
        "meta_norad_cat_id": 38251,
        "meta_element_set_no": 999,
        "meta_rev_at_epoch": 9246,
        "meta_bstar": 0,
        "meta_mean_motion_dot": -9e-07,
        "meta_mean_motion_ddot": 0,
        "tle_line1": "1 38251U 12018B   25346.25928426 -.00000090  00000+0  00000+0 0  9997",
        "tle_line2": "2 38251  55.8219 310.4024 0015548 277.1255  82.6882  1.86229301 92464"
      },
      "geometry": {
        "type": "Point",
        "coordinates": [
          -53.39105394527811,
          -5.459675326884015
        ]
      }
    },
    {
      "type": "Feature",
      "properties": {
        "norad_id": 38775,
        "name": "BEIDOU-2 M6 (C14)",
        "group": "beidou",
        "lat": -5.994684452963743,
        "lon": -106.96215201446142,
        "alt_km": 21557.943941410707,
        "timestamp": "2025-12-13T20:38:51.269719+00:00",
        "meta_object_name": "BEIDOU-2 M6 (C14)",
        "meta_object_id": "2012-050B",
        "meta_epoch": "2025-12-11T10:23:51.015840",
        "meta_mean_motion": 1.86230797,
        "meta_eccentricity": 0.00111593,
        "meta_inclination": 56.3773,
        "meta_ra_of_asc_node": 69.1107,
        "meta_arg_of_pericenter": 344.6089,
        "meta_mean_anomaly": 15.3783,
        "meta_ephemeris_type": 0,
        "meta_classification_type": "U",
        "meta_norad_cat_id": 38775,
        "meta_element_set_no": 999,
        "meta_rev_at_epoch": 8981,
        "meta_bstar": 0,
        "meta_mean_motion_dot": -6.3e-07,
        "meta_mean_motion_ddot": 0,
        "tle_line1": "1 38775U 12050B   25345.43322935 -.00000063  00000+0  00000+0 0  9996",
        "tle_line2": "2 38775  56.3773  69.1107 0011159 344.6089  15.3783  1.86230797 89814"
      },
      "geometry": {
        "type": "Point",
        "coordinates": [
          -106.96215201446142,
          -5.994684452963743
        ]
      }
    },
    {
      "type": "Feature",
      "properties": {
        "norad_id": 38953,
        "name": "BEIDOU-2 G6 (C02)",
        "group": "beidou",
        "lat": 2.6104608824282174,
        "lon": 116.51148340705204,
        "alt_km": 35798.24276626275,
        "timestamp": "2025-12-13T20:38:51.269743+00:00",
        "meta_object_name": "BEIDOU-2 G6 (C02)",
        "meta_object_id": "2012-059A",
        "meta_epoch": "2025-12-12T20:43:44.499936",
        "meta_mean_motion": 1.00269643,
        "meta_eccentricity": 0.00078194,
        "meta_inclination": 3.9499,
        "meta_ra_of_asc_node": 75.5054,
        "meta_arg_of_pericenter": 289.7326,
        "meta_mean_anomaly": 111.5098,
        "meta_ephemeris_type": 0,
        "meta_classification_type": "U",
        "meta_norad_cat_id": 38953,
        "meta_element_set_no": 999,
        "meta_rev_at_epoch": 4804,
        "meta_bstar": 0,
        "meta_mean_motion_dot": -1.63e-06,
        "meta_mean_motion_ddot": 0,
        "tle_line1": "1 38953U 12059A   25346.86370949 -.00000163  00000+0  00000+0 0  9990",
        "tle_line2": "2 38953   3.9499  75.5054 0007819 289.7326 111.5098  1.00269643 48044"
      },
      "geometry": {
        "type": "Point",
        "coordinates": [
          116.51148340705204,
          2.6104608824282174
        ]
      }
    },
    {
      "type": "Feature",
      "properties": {
        "norad_id": 40549,
        "name": "BEIDOU-3S IGSO-1S (C31)",
        "group": "beidou",
        "lat": -6.787419369728719,
        "lon": 123.48007535456446,
        "alt_km": 35627.17593132618,
        "timestamp": "2025-12-13T20:38:51.269759+00:00",
        "meta_object_name": "BEIDOU-3S IGSO-1S (C31)",
        "meta_object_id": "2015-019A",
        "meta_epoch": "2025-12-11T20:45:03.352032",
        "meta_mean_motion": 1.00292963,
        "meta_eccentricity": 0.0036964,
        "meta_inclination": 49.5542,
        "meta_ra_of_asc_node": 297.7211,
        "meta_arg_of_pericenter": 195.3449,
        "meta_mean_anomaly": 352.9961,
        "meta_ephemeris_type": 0,
        "meta_classification_type": "U",
        "meta_norad_cat_id": 40549,
        "meta_element_set_no": 999,
        "meta_rev_at_epoch": 3919,
        "meta_bstar": 0,
        "meta_mean_motion_dot": -1.91e-06,
        "meta_mean_motion_ddot": 0,
        "tle_line1": "1 40549U 15019A   25345.86462213 -.00000191  00000+0  00000+0 0  9999",
        "tle_line2": "2 40549  49.5542 297.7211 0036964 195.3449 352.9961  1.00292963 39194"
      },
      "geometry": {
        "type": "Point",
        "coordinates": [
          123.48007535456446,
          -6.787419369728719
        ]
      }
    },
    {
      "type": "Feature",
      "properties": {
        "norad_id": 40748,
        "name": "BEIDOU-3S M2S (C58)",
        "group": "beidou",
        "lat": -28.576840085247234,
        "lon": 150.79402917888874,
        "alt_km": 21510.79902318436,
        "timestamp": "2025-12-13T20:38:51.269771+00:00",
        "meta_object_name": "BEIDOU-3S M2S (C58)",
        "meta_object_id": "2015-037A",
        "meta_epoch": "2025-12-11T22:15:26.437248",
        "meta_mean_motion": 1.8622897,
        "meta_eccentricity": 0.00123447,
        "meta_inclination": 55.0397,
        "meta_ra_of_asc_node": 308.4912,
        "meta_arg_of_pericenter": 267.8245,
        "meta_mean_anomaly": 92.025,
        "meta_ephemeris_type": 0,
        "meta_classification_type": "U",
        "meta_norad_cat_id": 40748,
        "meta_element_set_no": 999,
        "meta_rev_at_epoch": 7063,
        "meta_bstar": 0,
        "meta_mean_motion_dot": -8.9e-07,
        "meta_mean_motion_ddot": 0,
        "tle_line1": "1 40748U 15037A   25345.92738932 -.00000089  00000+0  00000+0 0  9997",
        "tle_line2": "2 40748  55.0397 308.4912 0012344 267.8245  92.0250  1.86228970 70636"
      },
      "geometry": {
        "type": "Point",
        "coordinates": [
          150.79402917888874,
          -28.576840085247234
        ]
      }
    },
    {
      "type": "Feature",
      "properties": {
        "norad_id": 40749,
        "name": "BEIDOU-3S M1S (C57)",
        "group": "beidou",
        "lat": 46.20446448465701,
        "lon": -4.770291303923875,
        "alt_km": 21515.969591308334,
        "timestamp": "2025-12-13T20:38:51.269783+00:00",
        "meta_object_name": "BEIDOU-3S M1S (C57)",
        "meta_object_id": "2015-037B",
        "meta_epoch": "2025-12-11T14:53:54.000096",
        "meta_mean_motion": 1.86253918,
        "meta_eccentricity": 0.00034406,
        "meta_inclination": 55.0364,
        "meta_ra_of_asc_node": 308.4915,
        "meta_arg_of_pericenter": 358.1692,
        "meta_mean_anomaly": 1.8205,
        "meta_ephemeris_type": 0,
        "meta_classification_type": "U",
        "meta_norad_cat_id": 40749,
        "meta_element_set_no": 999,
        "meta_rev_at_epoch": 7063,
        "meta_bstar": 0,
        "meta_mean_motion_dot": -8.8e-07,
        "meta_mean_motion_ddot": 0,
        "tle_line1": "1 40749U 15037B   25345.62076389 -.00000088  00000+0  00000+0 0  9995",
        "tle_line2": "2 40749  55.0364 308.4915 0003440 358.1692   1.8205  1.86253918 70639"
      },
      "geometry": {
        "type": "Point",
        "coordinates": [
          -4.770291303923875,
          46.20446448465701
        ]
      }
    }
  ]
}